[Satellite]
VERSION=1.1
NAME=DRAGON CRS-26
NICKNAME=DRAGON CRS-26
TLE1=1 54371U 22159A   22342.35972083  .00009124  00000+0  16878-3 0  9997
TLE2=2 54371  51.6445 193.7595 0004441 137.7594  37.6707 15.49805741372191
STATUS=0
